{
  "type": "FeatureCollection",
  "features": [
    {
      "type": "Feature",
      "properties": {
        "norad_id": 39583,
        "name": "COSMOS 2251 DEB",
        "group": "cosmos-2251-debris",
        "lat": 33.92113752122219,
        "lon": 34.66548528898637,
        "alt_km": 783.104823482472,
        "timestamp": "2025-12-23T20:42:37.474271+00:00",
        "meta_object_name": "COSMOS 2251 DEB",
        "meta_object_id": "1993-036BUN",
        "meta_epoch": "2025-12-22T07:53:12.048288",
        "meta_mean_motion": 14.60596779,
        "meta_eccentricity": 0.0136989,
        "meta_inclination": 73.9314,
        "meta_ra_of_asc_node": 228.7915,
        "meta_arg_of_pericenter": 340.2609,
        "meta_mean_anomaly": 19.3281,
        "meta_ephemeris_type": 0,
        "meta_classification_type": "U",
        "meta_norad_cat_id": 39583,
        "meta_element_set_no": 999,
        "meta_rev_at_epoch": 61919,
        "meta_bstar": 0.0015693487,
        "meta_mean_motion_dot": 8.689e-05,
        "meta_mean_motion_ddot": 0,
        "tle_line1": "1 39583U 93036BUN 25356.32861167  .00008689  00000+0  15693-2 0  9990",
        "tle_line2": "2 39583  73.9314 228.7915 0136989 340.2609  19.3281 14.60596779619195"
      },
      "geometry": {
        "type": "Point",
        "coordinates": [
          34.66548528898637,
          33.92113752122219
        ]
      }
    },
    {
      "type": "Feature",
      "properties": {
        "norad_id": 39585,
        "name": "COSMOS 2251 DEB",
        "group": "cosmos-2251-debris",
        "lat": -67.86151281362827,
        "lon": 144.84084052449245,
        "alt_km": 741.5603026772269,
        "timestamp": "2025-12-23T20:42:37.474282+00:00",
        "meta_object_name": "COSMOS 2251 DEB",
        "meta_object_id": "1993-036BUQ",
        "meta_epoch": "2025-12-17T13:45:47.587680",
        "meta_mean_motion": 14.58681164,
        "meta_eccentricity": 0.00655713,
        "meta_inclination": 74.0421,
        "meta_ra_of_asc_node": 292.1145,
        "meta_arg_of_pericenter": 51.6529,
        "meta_mean_anomaly": 309.0503,
        "meta_ephemeris_type": 0,
        "meta_classification_type": "U",
        "meta_norad_cat_id": 39585,
        "meta_element_set_no": 999,
        "meta_rev_at_epoch": 62591,
        "meta_bstar": 0.00024435975,
        "meta_mean_motion_dot": 1.143e-05,
        "meta_mean_motion_ddot": 0,
        "tle_line1": "1 39585U 93036BUQ 25351.57346745  .00001143  00000+0  24436-3 0  9998",
        "tle_line2": "2 39585  74.0421 292.1145 0065571  51.6529 309.0503 14.58681164625913"
      },
      "geometry": {
        "type": "Point",
        "coordinates": [
          144.84084052449245,
          -67.86151281362827
        ]
      }
    },
    {
      "type": "Feature",
      "properties": {
        "norad_id": 39586,
        "name": "COSMOS 2251 DEB",
        "group": "cosmos-2251-debris",
        "lat": -7.664406987906462,
        "lon": -153.92933649306988,
        "alt_km": 753.5539167120942,
        "timestamp": "2025-12-23T20:42:37.474292+00:00",
        "meta_object_name": "COSMOS 2251 DEB",
        "meta_object_id": "1993-036BUR",
        "meta_epoch": "2025-12-15T23:50:08.053728",
        "meta_mean_motion": 14.21232237,
        "meta_eccentricity": 0.01008868,
        "meta_inclination": 74.0082,
        "meta_ra_of_asc_node": 222.4068,
        "meta_arg_of_pericenter": 356.2296,
        "meta_mean_anomaly": 66.1426,
        "meta_ephemeris_type": 0,
        "meta_classification_type": "U",
        "meta_norad_cat_id": 39586,
        "meta_element_set_no": 999,
        "meta_rev_at_epoch": 61018,
        "meta_bstar": 0.00043436803,
        "meta_mean_motion_dot": 9.7e-06,
        "meta_mean_motion_ddot": 0,
        "tle_line1": "1 39586U 93036BUR 25349.99314877  .00000970  00000+0  43437-3 0  9992",
        "tle_line2": "2 39586  74.0082 222.4068 0100886 356.2296  66.1426 14.21232237610182"
      },
      "geometry": {
        "type": "Point",
        "coordinates": [
          -153.92933649306988,
          -7.664406987906462
        ]
      }
    },
    {
      "type": "Feature",
      "properties": {
        "norad_id": 39591,
        "name": "COSMOS 2251 DEB",
        "group": "cosmos-2251-debris",
        "lat": -15.372117986295885,
        "lon": -138.38742912936542,
        "alt_km": 735.9726599203195,
        "timestamp": "2025-12-23T20:42:37.474302+00:00",
        "meta_object_name": "COSMOS 2251 DEB",
        "meta_object_id": "1993-036BUW",
        "meta_epoch": "2025-12-22T08:41:25.179936",
        "meta_mean_motion": 14.41830308,
        "meta_eccentricity": 0.00294833,
        "meta_inclination": 74.0192,
        "meta_ra_of_asc_node": 228.9144,
        "meta_arg_of_pericenter": 340.036,
        "meta_mean_anomaly": 136.9414,
        "meta_ephemeris_type": 0,
        "meta_classification_type": "U",
        "meta_norad_cat_id": 39591,
        "meta_element_set_no": 999,
        "meta_rev_at_epoch": 61915,
        "meta_bstar": 0.00024689328,
        "meta_mean_motion_dot": 7.85e-06,
        "meta_mean_motion_ddot": 0,
        "tle_line1": "1 39591U 93036BUW 25356.36209699  .00000785  00000+0  24689-3 0  9994",
        "tle_line2": "2 39591  74.0192 228.9144 0029483 340.0360 136.9414 14.41830308619156"
      },
      "geometry": {
        "type": "Point",
        "coordinates": [
          -138.38742912936542,
          -15.372117986295885
        ]
      }
    },
    {
      "type": "Feature",
      "properties": {
        "norad_id": 40218,
        "name": "COSMOS 2251 DEB",
        "group": "cosmos-2251-debris",
        "lat": -47.025431006842076,
        "lon": 66.11983204525193,
        "alt_km": 757.3384476352985,
        "timestamp": "2025-12-23T20:42:37.474312+00:00",
        "meta_object_name": "COSMOS 2251 DEB",
        "meta_object_id": "1993-036BUX",
        "meta_epoch": "2025-12-14T10:48:31.251744",
        "meta_mean_motion": 14.41597705,
        "meta_eccentricity": 0.00168728,
        "meta_inclination": 74.0298,
        "meta_ra_of_asc_node": 245.6562,
        "meta_arg_of_pericenter": 328.6,
        "meta_mean_anomaly": 31.4147,
        "meta_ephemeris_type": 0,
        "meta_classification_type": "U",
        "meta_norad_cat_id": 40218,
        "meta_element_set_no": 999,
        "meta_rev_at_epoch": 58886,
        "meta_bstar": 0.00046023204,
        "meta_mean_motion_dot": 1.474e-05,
        "meta_mean_motion_ddot": 0,
        "tle_line1": "1 40218U 93036BUX 25348.45036171  .00001474  00000+0  46023-3 0  9998",
        "tle_line2": "2 40218  74.0298 245.6562 0016872 328.6000  31.4147 14.41597705588868"
      },
      "geometry": {
        "type": "Point",
        "coordinates": [
          66.11983204525193,
          -47.025431006842076
        ]
      }
    },
    {
      "type": "Feature",
      "properties": {
        "norad_id": 40223,
        "name": "COSMOS 2251 DEB",
        "group": "cosmos-2251-debris",
        "lat": -2.5271128777475305,
        "lon": -113.45898138732733,
        "alt_km": 555.4970509732993,
        "timestamp": "2025-12-23T20:42:37.474322+00:00",
        "meta_object_name": "COSMOS 2251 DEB",
        "meta_object_id": "1993-036BVC",
        "meta_epoch": "2025-12-21T12:06:26.690112",
        "meta_mean_motion": 15.04482505,
        "meta_eccentricity": 0.00157052,
        "meta_inclination": 73.9371,
        "meta_ra_of_asc_node": 70.6668,
        "meta_arg_of_pericenter": 278.3258,
        "meta_mean_anomaly": 95.1407,
        "meta_ephemeris_type": 0,
        "meta_classification_type": "U",
        "meta_norad_cat_id": 40223,
        "meta_element_set_no": 999,
        "meta_rev_at_epoch": 59506,
        "meta_bstar": 0.0032560994,
        "meta_mean_motion_dot": 0.00045964,
        "meta_mean_motion_ddot": 0,
        "tle_line1": "1 40223U 93036BVC 25355.50447558  .00045964  00000+0  32561-2 0  9996",
        "tle_line2": "2 40223  73.9371  70.6668 0015705 278.3258  95.1407 15.04482505595064"
      },
      "geometry": {
        "type": "Point",
        "coordinates": [
          -113.45898138732733,
          -2.5271128777475305
        ]
      }
    },
    {
      "type": "Feature",
      "properties": {
        "norad_id": 40228,
        "name": "COSMOS 2251 DEB",
        "group": "cosmos-2251-debris",
        "lat": 73.07656503272696,
        "lon": -10.026662351357105,
        "alt_km": 763.5650823425403,
        "timestamp": "2025-12-23T20:42:37.474332+00:00",
        "meta_object_name": "COSMOS 2251 DEB",
        "meta_object_id": "1993-036BVH",
        "meta_epoch": "2025-12-22T22:40:43.832064",
        "meta_mean_motion": 14.41012867,
        "meta_eccentricity": 0.0024226,
        "meta_inclination": 74.0542,
        "meta_ra_of_asc_node": 241.6627,
        "meta_arg_of_pericenter": 301.6837,
        "meta_mean_anomaly": 73.6667,
        "meta_ephemeris_type": 0,
        "meta_classification_type": "U",
        "meta_norad_cat_id": 40228,
        "meta_element_set_no": 999,
        "meta_rev_at_epoch": 59068,
        "meta_bstar": 0.0002585,
        "meta_mean_motion_dot": 8.07e-06,
        "meta_mean_motion_ddot": 0,
        "tle_line1": "1 40228U 93036BVH 25356.94495176  .00000807  00000+0  25850-3 0  9990",
        "tle_line2": "2 40228  74.0542 241.6627 0024226 301.6837  73.6667 14.41012867590689"
      },
      "geometry": {
        "type": "Point",
        "coordinates": [
          -10.026662351357105,
          73.07656503272696
        ]
      }
    }
  ]
}